  const OKEAN_3 = [
    '1 21397U 91039A   21233.44639177  .00000231  00000-0  19564-4 0  9991',
    '2 21397  82.5224 127.9212 0017959 165.4692 194.7049 14.93140968616401',
  ];

  const COSMOS_2151 = [
    '1 21422U 91042A   21233.29156619  .00000210  00000-0  18030-4 0  9996',
    '2 21422  82.4983 233.6572 0012811 233.0350 126.9698 14.92284338614910',
  ];

  const ERS_1 = [
    '1 21574U 91050A   21233.35494194  .00000017  00000-0  20338-4 0  9992',
    '2 21574  98.6525 194.2807 0034161  89.0369 271.4731 14.37809921576891',
  ];

  const INTERCOSMOS_25 = [
    '1 21819U 91086A   21233.43827044  .00000565  00000-0  10597-3 0  9999',
    '2 21819  82.5789 228.5998 1517194  75.6367 300.7843 12.05279983296083',
  ];

  const COSMOS_2219 = [
    '1 22219U 92076A   21233.43735493  .00000311  00000-0  18905-3 0  9990',
    '2 22219  71.0579 249.4665 0019449 222.3727 137.5894 14.13666069483571',
  ];

  const COSMOS_2221 = [
    '1 22236U 92080A   21233.46198645  .00000208  00000-0  19934-4 0  9998',
    '2 22236  82.5057  57.2913 0016027 339.3327  20.7240 14.88085974533210',
  ];

  const COSMOS_2228 = [
    '1 22286U 92094A   21233.48513745  .00000213  00000-0  20151-4 0  9991',
    '2 22286  82.5215  14.0193 0022637  92.6863 267.6946 14.88311169528408',
  ];

  const COSMOS_2242 = [
    '1 22626U 93024A   21233.50554499  .00000214  00000-0  20400-4 0  9995',
    '2 22626  82.5207  42.3061 0020435  92.7610 267.5947 14.88161321532790',
  ];

  const COSMOS_2278 = [
    '1 23087U 94023A   21233.48877682 -.00000311  00000-0 -13912-3 0  9995',
    '2 23087  71.0539  48.7891 0007509  30.1654 329.9900 14.13833628409974',
  ];

  const ERS_2 = [
    '1 23560U 95021A   21233.33225622  .00001044  00000-0  46667-4 0  9991',
    '2 23560  98.5417  92.4705 0004226 131.0314 229.1285 15.24123014407571',
  ];

  const ORBVIEW_2_SEASTAR = [
    '1 24883U 97037A   21233.26702467  .00000036  00000-0  29157-4 0  9993',
    '2 24883  98.6490 351.2818 0001198 277.6036  82.5012 14.33628653270290',
  ];

  const ISS_ZARYA = [
    '1 25544U 98067A   21233.72321194  .00005004  00000-0  10063-3 0  9992',
    '2 25544  51.6451  18.6351 0002801 298.4081 168.7057 15.48500216298758',
  ];

  const CZ_4B_R_B = [
    '1 29507U 06046C   21233.35428622  .00001035  00000-0  83936-4 0  9994',
    '2 29507  97.7603 259.1312 0047388 155.2724 205.0786 15.01068111809847',
  ];

  const OKEAN_O = [
    '1 25860U 99039A   21233.37478525  .00000065  00000-0  16815-4 0  9999',
    '2 25860  98.1793 264.9977 0000882  76.5269 283.6039 14.76753702188962',
  ];

  const DELTA_2_R_B = [
    '1 25876U 99041E   21233.51732472  .00000141  00000-0  64652-4 0  9996',
    '2 25876  51.7648  52.3581 0531651 158.4605 203.9628 14.04606517129090',
  ];

  const HELIOS_1B = [
    '1 25977U 99064A   21233.49026169  .00000049  00000-0  13237-4 0  9999',
    '2 25977  98.3207  50.5829 0002293  65.2559 294.8891 14.82575044438835',
  ];

  const TERRA = [
    '1 25994U 99068A   21233.46202812  .00000058  00000-0  22794-4 0  9998',
    '2 25994  98.1726 306.6845 0001408  99.6413 317.3415 14.57132018152814',
  ];

  const MTI = [
    '1 26102U 00014A   21233.01657572  .00012276  00000-0  13906-3 0  9990',
    '2 26102  97.4602 143.0541 0008172  81.2772 278.9447 15.62521668191424',
  ];

  const TITAN_4B_R_B = [
    '1 26474U 00047B   21233.53388704  .00000132  00000-0  22295-4 0  9993',
    '2 26474  67.9951 331.6581 0051074  84.0104 276.6856 14.96200664143571',
  ];

  const ENVISAT = [
    '1 27386U 02009A   21233.45650476  .00000016  00000-0  18639-4 0  9993',
    '2 27386  98.1527 224.2055 0001387  86.3109  86.6318 14.38038063 20343',
  ];

  const IDEFIX_ARIANE_42P_R_B = [
    '1 27422U 02021B   21233.35113562 -.00000009  00000-0  12924-4 0  9991',
    '2 27422  98.4064 184.0563 0013201  45.4765 314.7494 14.29327669  6585',
  ];

  const AQUA = [
    '1 27424U 02022A   21233.57479937  .00000091  00000-0  30153-4 0  9993',
    '2 27424  98.2114 173.9743 0002371  82.3497  90.9247 14.57116269 26513',
  ];

  const MIDORI_II_ADEOS_II = [
    '1 27597U 02056A   21233.28010796  .00000007  00000-0  20483-4 0  9995',
    '2 27597  98.5671 177.3079 0001568 121.6280 238.5054 14.27511929973133',
  ];

  const H_2A_R_B = [
    '1 38341U 12025E   21233.24603818  .00000136  00000-0  23602-4 0  9999',
    '2 38341  98.5282  63.1692 0054158 291.9974  67.5489 14.84257571501117',
  ];

  const CZ_2C_R_B = [
    '1 43521U 18054D   21233.53789646  .00000452  00000-0  26161-4 0  9993',
    '2 43521  35.1547  48.2650 0082329 312.5063  46.8718 15.11628530174256',
  ];

  const ARIANE_5_R_B = [
    '1 28499U 04049H   21233.26506325  .00000034  00000-0  11733-4 0  9995',
    '2 28499  98.0750 342.8631 0091160 325.0024  57.0542 14.80143889899671',
  ];

  const CZ_2D_R_B = [
    '1 28738U 05024B   21233.34562101  .00000523  00000-0  33581-4 0  9996',
    '2 28738  97.3603 247.0794 0013043 131.9747 228.2598 15.12500017886374',
  ];

  const SUZAKU_ASTRO_EII = [
    '1 28773U 05025A   21233.31425604  .00001399  00000-0  61749-4 0  9998',
    '2 28773  31.3814  99.5548 0004590 220.3825 139.6482 15.18577184889330',
  ];

  const ALOS_DAICHI = [
    '1 28931U 06002A   21233.40085746  .00000109  00000-0  29983-4 0  9991',
    '2 28931  97.8914 205.3156 0001377 103.1419 256.9934 14.62869216830556',
  ];

  const AKARI_ASTRO_F = [
    '1 28939U 06005A   21233.40033957  .00002811  00000-0  70224-4 0  9995',
    '2 28939  98.2401 264.6233 0084313 256.4422 102.7417 15.37649797846881',
  ];

  const RESURS_DK_1 = [
    '1 29228U 06021A   21233.24971688  .00000127  00000-0  16805-4 0  9992',
    '2 29228  69.9357 173.7040 0004695 201.8629 158.2332 15.02731683837275',
  ];

  const GENESIS_1 = [
    '1 29252U 06029A   21233.54705355  .00000655  00000-0  40574-4 0  9992',
    '2 29252  64.5232 334.1860 0050017 309.2111  50.4576 15.18794140833404',
  ];

  const COSMO_SKYMED_1 = [
    '1 31598U 07023A   21233.45245434 -.00001790  00000-0 -21845-3 0  9992',
    '2 31598  97.8915  56.4231 0001405  83.7733 276.3653 14.82144897768527',
  ];

  const GENESIS_2 = [
    '1 31789U 07028A   21233.41927398  .00000373  00000-0  28344-4 0  9997',
    '2 31789  64.4970  17.1413 0008526  19.9190 340.2264 15.17864577780341',
  ];

  const COSMOS_2428 = [
    '1 31792U 07029A   21233.35435848  .00000335  00000-0  20786-3 0  9998',
    '2 31792  70.9082  89.6285 0007361 159.2424 200.8997 14.12334230729479',
  ];

  const KORONAS_FOTON = [
    '1 33504U 09003A   21233.50147365  .00000265  00000-0  12083-4 0  9990',
    '2 33504  82.4439 154.7892 0017550 227.5845 132.3904 15.16075728692500',
  ];

  const CUSAT_2_FALCON_9_R_B = [
    '1 39271U 13055G   21233.50528240  .00007112  00000-0  16610-3 0  9991',
    '2 39271  80.9669 162.5469 0563839 311.9192  43.5198 14.53900996413087',
  ];

  const SL_4_R_B = [
    '1 47547U 21008B   21233.33663534  .00045969  53889-5  15764-3 0  9999',
    '2 47547  67.1368 200.8705 0366621 264.8801  91.0421 15.30496479 30261',
  ];

  const ALOS_2 = [
    '1 39766U 14029A   21233.52080178  .00000172  00000-0  29952-4 0  9990',
    '2 39766  97.9221 329.9510 0001524  90.6708 269.4684 14.79473473391285',
  ];

  const SL_27_R_B = [
    '1 40354U 14084B   21233.52539194  .00001110  00000-0  27339-4 0  9993',
    '2 40354  74.7361 217.6772 0036834 192.0253 168.0085 15.41274155374360',
  ];

  const YAOGAN_29 = [
    '1 41038U 15069A   21233.55991227  .00000040  00000-0  12136-4 0  9999',
    '2 41038  98.0410 227.7097 0000956  50.5694 309.5604 14.80518555309914',
  ];

  const ASTRO_H_HITOMI = [
    '1 41337U 16012A   21233.49601125  .00000312  00000-0  18295-4 0  9992',
    '2 41337  31.0043 162.7247 0012233   0.9137 359.1519 14.98875608302072',
  ];

  const HXMT_HUIYAN = [
    '1 42758U 17034A   21233.38022969  .00000214  00000-0  26750-4 0  9992',
    '2 42758  43.0160 196.7229 0008762 214.7681 279.7007 15.09267914230821',
  ];

  const AEOLUS = [
    '1 43600U 18066A   21233.44593185  .00037228  00000-0  14557-3 0  9991',
    '2 43600  96.7146 239.2626 0006134  80.2182 279.9784 15.86914218173555',
  ];

  const SAOCOM_1A = [
    '1 43641U 18076A   21233.46086442  .00000033  00000-0  10689-4 0  9999',
    '2 43641  97.8886  59.4550 0001502  77.7900 282.3486 14.82154192155294',
  ];

  const SAOCOM_1B = [
    '1 46265U 20059A   21233.49204042  .00000021  00000-0  91674-5 0  9990',
    '2 46265  97.8896  58.5449 0001474  80.6839 279.4546 14.82153333 52699',
  ];

  const SAT_2020_063G = [
    '1 46395U 20063G   21233.58545718  .00033514  11489-4  11044-3 0  9998',
    '2 46395  50.2029 341.1861 0006993  20.8493 339.2777 15.91584546 55640',
  ];

  const TIANHE = [
    '1 48274U 21035A   21233.76853679  .00005326  00000-0  60560-4 0  9995',
    '2 48274  41.4696 242.8915 0006270  65.3362 104.2579 15.63063156 17954',
  ];

  new Satellite(universe, 'crypto0', ATLAS_CENTAUR_2[0], ATLAS_CENTAUR_2[1]);
  new Satellite(universe, 'crypto1', THOR_AGENA_D_R_B[0], THOR_AGENA_D_R_B[1]);
  new Satellite(universe, 'crypto2', SL_3_R_B[0], SL_3_R_B[1]);
  new Satellite(universe, 'crypto3', SL_8_R_B[0], SL_8_R_B[1]);
  new Satellite(universe, 'crypto4', OAO_2[0], OAO_2[1]);
  new Satellite(universe, 'crypto5', ISIS_1[0], ISIS_1[1]);
  new Satellite(universe, 'crypto6', SERT_2[0], SERT_2[1]);
  new Satellite(universe, 'crypto7', ASTEX_1[0], ASTEX_1[1]);
  new Satellite(universe, 'crypto8', COSMOS_482_DESCENT_CRAFT[0], COSMOS_482_DESCENT_CRAFT[1]);
  new Satellite(universe, 'crypto9', OAO_3_COPERNICUS[0], OAO_3_COPERNICUS[1]);
  new Satellite(universe, 'crypto10', ATLAS_CENTAUR_R_B[0], ATLAS_CENTAUR_R_B[1]);
  new Satellite(universe, 'crypto11', SEASAT_1[0], SEASAT_1[1]);
  new Satellite(universe, 'crypto12', METEOR_1_29[0], METEOR_1_29[1]);
  new Satellite(universe, 'crypto13', SL_14_R_B[0], SL_14_R_B[1]);
  new Satellite(universe, 'crypto14', METEOR_PRIRODA[0], METEOR_PRIRODA[1]);
  new Satellite(universe, 'crypto15', COSMOS_1408[0], COSMOS_1408[1]);
